NORAD_CAT_ID,OBJECT_NAME,OBJECT_TYPE,EPOCH,MEAN_MOTION,ECCENTRICITY,INCLINATION,RA_OF_ASC_NODE,ARG_OF_PERICENTER,MEAN_ANOMALY,BSTAR,MEAN_MOTION_DOT,MEAN_MOTION_DDOT,TLE_LINE0,TLE_LINE1,TLE_LINE2,SEMIMAJOR_AXIS,PERIOD,APOGEE,PERIGEE,DECAYED
53024.0,STARLINK-4289,PAYLOAD,2023-05-13 02:35:23,15.08850483,0.0001243,53.2175,35.0756,112.0712,248.0412,0.00030002,4.491e-05,0.0,0 STARLINK-4289,1 53024U 22076AQ  23133.10790872  .00004491  00000-0  30002-3 0  9993,2 53024  53.2175  35.0756 0001243 112.0712 248.0412 15.08850483 47722,6917.848,95.437,540.573,538.853,0.0
53024.0,STARLINK-4289,PAYLOAD,2023-05-13 21:40:01,15.08835089,9.82e-05,53.2172,31.5047,90.1556,269.9549,2.7481e-05,1.5e-06,0.0,0 STARLINK-4289,1 53024U 22076AQ  23133.90279885  .00000150  00000-0  27481-4 0  9993,2 53024  53.2172  31.5047 0000982  90.1556 269.9549 15.08835089 47373,6917.895,95.438,540.44,539.081,0.0
53024.0,STARLINK-4289,PAYLOAD,2023-05-14 02:26:10,15.08844122,0.0001156,53.2171,30.6137,90.608,269.5045,0.00020141,2.919e-05,0.0,0 STARLINK-4289,1 53024U 22076AQ  23134.10151599  .00002919  00000-0  20141-3 0  9997,2 53024  53.2171  30.6137 0001156  90.6080 269.5045 15.08844122 47873,6917.868,95.437,540.532,538.933,0.0
53024.0,STARLINK-4289,PAYLOAD,2023-05-14 21:30:48,15.08843904,0.0001232,53.2175,27.0465,90.1195,269.9939,0.00012745,1.741e-05,0.0,0 STARLINK-4289,1 53024U 22076AQ  23134.89639706  .00001741  00000-0  12745-3 0  9997,2 53024  53.2175  27.0465 0001232  90.1195 269.9939 15.08843904 47523,6917.868,95.437,540.586,538.881,0.0
53024.0,STARLINK-4289,PAYLOAD,2023-05-15 10:13:53,15.08845529,0.0001225,53.2173,24.667,91.1164,268.9969,0.00021574,3.148e-05,0.0,0 STARLINK-4289,1 53024U 22076AQ  23135.42631653  .00003148  00000-0  21574-3 0  9993,2 53024  53.2173  24.6670 0001225  91.1164 268.9969 15.08845529 48079,6917.863,95.437,540.576,538.881,0.0
53024.0,STARLINK-4289,PAYLOAD,2023-05-15 22:56:58,15.08843414,0.0001306,53.2177,22.2884,89.7383,270.3759,0.00014504,2.021e-05,0.0,0 STARLINK-4289,1 53024U 22076AQ  23135.95623739  .00002021  00000-0  14504-3 0  9991,2 53024  53.2177  22.2884 0001306  89.7383 270.3759 15.08843414 48154,6917.87,95.437,540.638,538.831,0.0
53024.0,STARLINK-4289,PAYLOAD,2023-05-16 19:36:59,15.08842586,0.0001273,53.2171,18.4208,92.4145,267.6993,6.8156e-05,7.97e-06,0.0,0 STARLINK-4289,1 53024U 22076AQ  23136.81735642  .00000797  00000-0  68156-4 0  9995,2 53024  53.2171  18.4208 0001273  92.4145 267.6993 15.08842586 47815,6917.872,95.437,540.618,538.857,0.0
53024.0,STARLINK-4289,PAYLOAD,2023-05-17 01:58:31,15.08845556,0.0001246,53.2171,17.2312,92.7187,267.3948,8.4634e-05,1.06e-05,0.0,0 STARLINK-4289,1 53024U 22076AQ  23137.08231422  .00001060  00000-0  84634-4 0  9995,2 53024  53.2171  17.2312 0001246  92.7187 267.3948 15.08845556 48321,6917.863,95.437,540.59,538.866,0.0
53024.0,STARLINK-4289,PAYLOAD,2023-05-17 19:27:46,15.08834659,0.000124,53.2171,13.9579,108.6587,251.454,-1.7032e-05,-5.59e-06,0.0,0 STARLINK-4289,1 53024U 22076AQ  23137.81095942 -.00000559  00000-0 -17032-4 0  9993,2 53024  53.2171  13.9579 0001240 108.6587 251.4540 15.08834659 48430,6917.897,95.438,540.62,538.904,0.0
53024.0,STARLINK-4289,PAYLOAD,2023-05-17 22:38:33,15.08835594,0.0001026,53.2167,13.3679,90.6876,269.4234,5.1778e-05,5.36e-06,0.0,0 STARLINK-4289,1 53024U 22076AQ  23137.94344124  .00000536  00000-0  51778-4 0  9994,2 53024  53.2167  13.3679 0001026  90.6876 269.4234 15.08835594 47980,6917.894,95.438,540.469,539.049,0.0
53024.0,STARLINK-4289,PAYLOAD,2023-05-18 14:32:24,15.08837397,0.000113,53.2175,10.3926,88.1692,271.9429,3.1223e-05,2.09e-06,0.0,0 STARLINK-4289,1 53024U 22076AQ  23138.60584260  .00000209  00000-0  31223-4 0  9995,2 53024  53.2175  10.3926 0001130  88.1692 271.9429 15.08837397 48084,6917.888,95.438,540.535,538.972,0.0
53024.0,STARLINK-4289,PAYLOAD,2023-05-18 22:29:20,15.08841312,0.0001124,53.2172,8.9062,89.8185,270.2936,5.8983e-05,6.51e-06,0.0,0 STARLINK-4289,1 53024U 22076AQ  23138.93703956  .00000651  00000-0  58983-4 0  9999,2 53024  53.2172   8.9062 0001124  89.8185 270.2936 15.08841312 48136,6917.876,95.437,540.519,538.964,0.0
53024.0,STARLINK-4289,PAYLOAD,2023-05-19 01:40:06,15.0884245,0.0001089,53.2171,8.3111,93.5721,266.5396,7.8165e-05,9.56e-06,0.0,0 STARLINK-4289,1 53024U 22076AQ  23139.06951810  .00000956  00000-0  78165-4 0  9990,2 53024  53.2171   8.3111 0001089  93.5721 266.5396 15.08842450 48628,6917.873,95.437,540.491,538.985,0.0
53024.0,STARLINK-4289,PAYLOAD,2023-05-19 17:33:58,15.08834423,0.0001189,53.2166,5.3378,93.0889,267.024,7.0726e-05,8.38e-06,0.0,0 STARLINK-4289,1 53024U 22076AQ  23139.73192597  .00000838  00000-0  70726-4 0  9997,2 53024  53.2166   5.3378 0001189  93.0889 267.0240 15.08834423 48721,6917.897,95.438,540.585,538.94,0.0
53024.0,STARLINK-4289,PAYLOAD,2023-05-19 20:44:44,15.08836118,0.0001198,53.2166,4.743,99.7185,260.3943,9.6161e-05,1.243e-05,0.0,0 STARLINK-4289,1 53024U 22076AQ  23139.86440428  .00001243  00000-0  96161-4 0  9992,2 53024  53.2166   4.7430 0001198  99.7185 260.3943 15.08836118 48274,6917.892,95.438,540.586,538.928,0.0
53024.0,STARLINK-4289,PAYLOAD,2023-05-19 23:55:30,15.08842282,0.00012,53.2167,4.148,103.8246,256.288,0.00011188,1.493e-05,0.0,0 STARLINK-4289,1 53024U 22076AQ  23139.99687989  .00001493  00000-0  11188-3 0  9993,2 53024  53.2167   4.1480 0001200 103.8246 256.2880 15.08842282 48760,6917.873,95.437,540.569,538.908,0.0
53024.0,STARLINK-4289,PAYLOAD,2023-05-20 20:35:30,15.08851323,0.0001023,53.2159,0.282,85.8208,274.2901,0.00018477,2.655e-05,0.0,0 STARLINK-4289,1 53024U 22076AQ  23140.85799391  .00002655  00000-0  18477-3 0  9990,2 53024  53.2159   0.2820 0001023  85.8208 274.2901 15.08851323 48429,6917.846,95.437,540.418,539.003,0.0
53024.0,STARLINK-4289,PAYLOAD,2023-05-20 23:46:16,15.08858978,0.0001196,53.2161,359.687,84.3701,275.7428,0.0003143,4.72e-05,0.0,0 STARLINK-4289,1 53024U 22076AQ  23140.99047033  .00004720  00000-0  31430-3 0  9993,2 53024  53.2161 359.6870 0001196  84.3701 275.7428 15.08858978 48918,6917.822,95.436,540.515,538.86,0.0
53024.0,STARLINK-4289,PAYLOAD,2023-05-21 14:04:46,15.08827858,9.91e-05,53.2153,357.0111,87.1435,272.9671,-0.00013761,-2.476e-05,0.0,0 STARLINK-4289,1 53024U 22076AQ  23141.58664549 -.00002476  00000-0 -13761-3 0  9991,2 53024  53.2153 357.0111 0000991  87.1435 272.9671 15.08827858 48536,6917.918,95.438,540.468,539.097,0.0
53024.0,STARLINK-4289,PAYLOAD,2023-05-21 17:15:32,15.08829746,0.0001181,53.2157,356.4153,103.8682,256.2442,-0.00011755,-2.158e-05,0.0,0 STARLINK-4289,1 53024U 22076AQ  23141.71912569 -.00002158  00000-0 -11755-3 0  9992,2 53024  53.2157 356.4153 0001181 103.8682 256.2442 15.08829746 49025,6917.912,95.438,540.594,538.96,0.0
53024.0,STARLINK-4289,PAYLOAD,2023-05-21 20:26:18,15.0883066,0.0001135,53.2158,355.8208,101.8633,258.2486,-8.1243e-05,-1.58e-05,0.0,0 STARLINK-4289,1 53024U 22076AQ  23141.85160645 -.00001580  00000-0 -81243-4 0  9995,2 53024  53.2158 355.8208 0001135 101.8633 258.2486 15.08830660 48579,6917.909,95.438,540.559,538.989,0.0
53024.0,STARLINK-4289,PAYLOAD,2023-05-22 07:34:00,15.08838729,0.0001176,53.216,353.7385,106.8513,253.2608,0.00028083,4.184e-05,0.0,0 STARLINK-4289,1 53024U 22076AQ  23142.31528767  .00004184  00000-0  28083-3 0  9993,2 53024  53.2160 353.7385 0001176 106.8513 253.2608 15.08838729 49118,6917.884,95.438,540.563,538.936,0.0
53024.0,STARLINK-4289,PAYLOAD,2023-05-22 13:55:33,15.08838998,0.0001111,53.2161,352.5493,105.2745,254.837,0.0005189,7.98e-05,0.0,0 STARLINK-4289,1 53024U 22076AQ  23142.58024970  .00007980  00000-0  51890-3 0  9998,2 53024  53.2161 352.5493 0001111 105.2745 254.8370 15.08838998 48687,6917.883,95.438,540.517,538.98,0.0
53024.0,STARLINK-4289,PAYLOAD,2023-05-22 20:17:05,15.0885429,0.0001083,53.2157,351.3605,105.1662,254.945,0.0010735,0.00016845,0.0,0 STARLINK-4289,1 53024U 22076AQ  23142.84520752  .00016845  00000-0  10735-2 0  9998,2 53024  53.2157 351.3605 0001083 105.1662 254.9450 15.08854290 48727,6917.837,95.437,540.451,538.953,0.0
53024.0,STARLINK-4289,PAYLOAD,2023-05-23 02:38:38,15.08861644,0.0001072,53.2154,350.1712,101.8057,258.3055,0.00098435,0.00015422,0.0,0 STARLINK-4289,1 53024U 22076AQ  23143.11016426  .00015422  00000-0  98435-3 0  9991,2 53024  53.2154 350.1712 0001072 101.8057 258.3055 15.08861644 49236,6917.814,95.436,540.421,538.938,0.0
53024.0,STARLINK-4289,PAYLOAD,2023-05-23 12:10:57,15.08841325,0.0001016,53.2157,348.3867,95.0185,265.0923,8.2543e-05,1.026e-05,0.0,0 STARLINK-4289,1 53024U 22076AQ  23143.50760779  .00001026  00000-0  82543-4 0  9990,2 53024  53.2157 348.3867 0001016  95.0185 265.0923 15.08841325 49292,6917.876,95.437,540.444,539.038,0.0
53024.0,STARLINK-4289,PAYLOAD,2023-05-23 20:07:52,15.08850953,9.83e-05,53.216,346.9003,89.8473,270.2632,0.00057433,8.867e-05,0.0,0 STARLINK-4289,1 53024U 22076AQ  23143.83880653  .00008867  00000-0  57433-3 0  9999,2 53024  53.2160 346.9003 0000983  89.8473 270.2632 15.08850953 48870,6917.847,95.437,540.392,539.032,0.0
53024.0,STARLINK-4289,PAYLOAD,2023-05-24 02:29:25,15.08858317,0.0001,53.2161,345.7111,87.891,272.2197,0.00094989,0.00014869,0.0,0 STARLINK-4289,1 53024U 22076AQ  23144.10376516  .00014869  00000-0  94989-3 0  9994,2 53024  53.2161 345.7111 0001000  87.8910 272.2197 15.08858317 49380,6917.824,95.436,540.381,538.998,0.0
53024.0,STARLINK-4289,PAYLOAD,2023-05-24 04:04:48,15.08840135,0.0001167,53.2161,345.4137,71.9793,288.1326,0.00066715,0.00010346,0.0,0 STARLINK-4289,1 53024U 22076AQ  23144.17000945  .00010346  00000-0  66715-3 0  9993,2 53024  53.2161 345.4137 0001167  71.9793 288.1326 15.08840135 49392,6917.88,95.438,540.552,538.938,0.0
53024.0,STARLINK-4289,PAYLOAD,2023-05-24 15:12:30,15.08848996,9.57e-05,53.2162,343.3319,96.7134,263.3967,0.00072002,0.00011193,0.0,0 STARLINK-4289,1 53024U 22076AQ  23144.63368740  .00011193  00000-0  72002-3 0  9991,2 53024  53.2162 343.3319 0000957  96.7134 263.3967 15.08848996 48996,6917.853,95.437,540.38,539.056,0.0
